STARLINK-31615          
1 59413U 24064R   26067.24197755  .00001792  00000+0  74625-4 0  9995
2 59413  43.0017  57.4665 0001108 254.6270 105.4459 15.27584219109088
FLOCK 4G-4              
1 62659U 25009BC  26068.75333732  .00011866  00000+0  45294-3 0  9997
2 62659  97.3994 150.7963 0001598 343.4316  16.6870 15.26803327121323
